SL-14 R/B               
1 21423U 91042B   26013.72329206  .00000316  00000+0  36986-4 0  9996
2 21423  82.4929 271.7351 0018471  63.9282 296.3830 14.81773263844936
ERS-1                   
1 21574U 91050A   26013.99142733  .00000235  00000+0  90086-4 0  9990
2 21574  98.7898  30.8523 0032073   6.5141 353.6456 14.39395131807863
ARIANE 40 R/B           
1 21610U 91050F   26013.75627702  .00000218  00000+0  77890-4 0  9998
2 21610  98.2120  68.0246 0002259 223.4365 136.6648 14.42843413811078
INTERCOSMOS 25          
1 21819U 91086A   26013.91718608  .00001079  00000+0  21381-3 0  9991
2 21819  82.6086 343.1117 1485979 234.9894 110.2781 12.11852414490052
SL-8 R/B                
1 21876U 92008B   26013.74791892  .00000062  00000+0  47986-4 0  9997
2 21876  82.9288 308.6415 0033444 289.2273 132.9370 13.75966042701861
SL-8 R/B                
1 21938U 92020B   26013.94024273  .00000159  00000+0  14858-3 0  9992
2 21938  82.9294 194.4048 0030255  90.7513  73.5501 13.75537432693604
USA 81                  
1 21949U 92023A   26013.68033059  .00000170  00000+0  55759-4 0  9999
2 21949  85.0100 163.1562 0001638 117.4996 242.6364 14.32341782 86916
COSMOS 2219             
1 22219U 92076A   26013.76936822 -.00000013  00000+0  17768-4 0  9992
2 22219  71.0618 132.8793 0020635 282.9199  76.9619 14.14081332710610
SL-16 R/B               
1 22220U 92076B   26013.57998812  .00000216  00000+0  13168-3 0  9993
2 22220  71.0016 304.4613 0013045 189.5465 343.7504 14.16848965714029
COSMOS 2221             
1 22236U 92080A   26013.86002378  .00001369  00000+0  11975-3 0  9994
2 22236  82.5056 331.5782 0015296  23.6303 336.5618 14.95923582772592
SL-16 R/B               
1 22285U 92093B   26013.68731187  .00000254  00000+0  15453-3 0  9996
2 22285  71.0220 119.7332 0003609   0.0590   0.0533 14.15436078705373
COSMOS 2228             
1 22286U 92094A   26013.84533489  .00001731  00000+0  14804-3 0  9991
2 22286  82.5191 289.8155 0019296 123.0524 237.2556 14.96907219767851
