CCSDS_OMM_VERS = 2.0
CREATION_DATE  = 
ORIGINATOR     = 

OBJECT_NAME    = SL-14 R/B
OBJECT_ID      = 1991-042B
CENTER_NAME    = EARTH
REF_FRAME      = TEME
TIME_SYSTEM    = UTC
MEAN_ELEMENT_THEORY = SGP/SGP4

EPOCH          = 2026-01-13T17:21:32.433984
MEAN_MOTION    = 14.81773263
ECCENTRICITY   = .00184718
INCLINATION    = 82.4929
RA_OF_ASC_NODE = 271.7351
ARG_OF_PERICENTER = 63.9282
MEAN_ANOMALY   = 296.3830

EPHEMERIS_TYPE = 0
CLASSIFICATION_TYPE = U
NORAD_CAT_ID   = 21423
ELEMENT_SET_NO = 999
REV_AT_EPOCH   = 84493
BSTAR          = .36985838E-4
MEAN_MOTION_DOT = .316E-5
MEAN_MOTION_DDOT = 0

CCSDS_OMM_VERS = 2.0
CREATION_DATE  = 
ORIGINATOR     = 

OBJECT_NAME    = ERS-1
OBJECT_ID      = 1991-050A
CENTER_NAME    = EARTH
REF_FRAME      = TEME
TIME_SYSTEM    = UTC
MEAN_ELEMENT_THEORY = SGP/SGP4

EPOCH          = 2026-01-13T23:47:39.321312
MEAN_MOTION    = 14.39395131
ECCENTRICITY   = .00320736
INCLINATION    = 98.7898
RA_OF_ASC_NODE = 30.8523
ARG_OF_PERICENTER = 6.5141
MEAN_ANOMALY   = 353.6456

EPHEMERIS_TYPE = 0
CLASSIFICATION_TYPE = U
NORAD_CAT_ID   = 21574
ELEMENT_SET_NO = 999
REV_AT_EPOCH   = 80786
BSTAR          = .90085627E-4
MEAN_MOTION_DOT = .235E-5
MEAN_MOTION_DDOT = 0

CCSDS_OMM_VERS = 2.0
CREATION_DATE  = 
ORIGINATOR     = 

OBJECT_NAME    = ARIANE 40 R/B
OBJECT_ID      = 1991-050F
CENTER_NAME    = EARTH
REF_FRAME      = TEME
TIME_SYSTEM    = UTC
MEAN_ELEMENT_THEORY = SGP/SGP4

EPOCH          = 2026-01-13T18:09:02.334528
MEAN_MOTION    = 14.42843413
ECCENTRICITY   = .00022598
INCLINATION    = 98.2120
RA_OF_ASC_NODE = 68.0246
ARG_OF_PERICENTER = 223.4365
MEAN_ANOMALY   = 136.6648

EPHEMERIS_TYPE = 0
CLASSIFICATION_TYPE = U
NORAD_CAT_ID   = 21610
ELEMENT_SET_NO = 999
REV_AT_EPOCH   = 81107
BSTAR          = .77890428E-4
MEAN_MOTION_DOT = .218E-5
MEAN_MOTION_DDOT = 0

CCSDS_OMM_VERS = 2.0
CREATION_DATE  = 
ORIGINATOR     = 

OBJECT_NAME    = INTERCOSMOS 25
OBJECT_ID      = 1991-086A
CENTER_NAME    = EARTH
REF_FRAME      = TEME
TIME_SYSTEM    = UTC
MEAN_ELEMENT_THEORY = SGP/SGP4

EPOCH          = 2026-01-13T22:00:44.877312
MEAN_MOTION    = 12.11852414
ECCENTRICITY   = .14859795
INCLINATION    = 82.6086
RA_OF_ASC_NODE = 343.1117
ARG_OF_PERICENTER = 234.9894
MEAN_ANOMALY   = 110.2781

EPHEMERIS_TYPE = 0
CLASSIFICATION_TYPE = U
NORAD_CAT_ID   = 21819
ELEMENT_SET_NO = 999
REV_AT_EPOCH   = 49005
BSTAR          = .21380932E-3
MEAN_MOTION_DOT = .1079E-4
MEAN_MOTION_DDOT = 0

CCSDS_OMM_VERS = 2.0
CREATION_DATE  = 
ORIGINATOR     = 

OBJECT_NAME    = SL-8 R/B
OBJECT_ID      = 1992-008B
CENTER_NAME    = EARTH
REF_FRAME      = TEME
TIME_SYSTEM    = UTC
MEAN_ELEMENT_THEORY = SGP/SGP4

EPOCH          = 2026-01-13T17:57:00.194688
MEAN_MOTION    = 13.75966042
ECCENTRICITY   = .00334442
INCLINATION    = 82.9288
RA_OF_ASC_NODE = 308.6415
ARG_OF_PERICENTER = 289.2273
MEAN_ANOMALY   = 132.9370

EPHEMERIS_TYPE = 0
CLASSIFICATION_TYPE = U
NORAD_CAT_ID   = 21876
ELEMENT_SET_NO = 999
REV_AT_EPOCH   = 70186
BSTAR          = .4798627E-4
MEAN_MOTION_DOT = .62E-6
MEAN_MOTION_DDOT = 0

CCSDS_OMM_VERS = 2.0
CREATION_DATE  = 
ORIGINATOR     = 

OBJECT_NAME    = SL-8 R/B
OBJECT_ID      = 1992-020B
CENTER_NAME    = EARTH
REF_FRAME      = TEME
TIME_SYSTEM    = UTC
MEAN_ELEMENT_THEORY = SGP/SGP4

EPOCH          = 2026-01-13T22:33:56.971872
MEAN_MOTION    = 13.75537432
ECCENTRICITY   = .00302551
INCLINATION    = 82.9294
RA_OF_ASC_NODE = 194.4048
ARG_OF_PERICENTER = 90.7513
MEAN_ANOMALY   = 73.5501

EPHEMERIS_TYPE = 0
CLASSIFICATION_TYPE = U
NORAD_CAT_ID   = 21938
ELEMENT_SET_NO = 999
REV_AT_EPOCH   = 69360
BSTAR          = .14858104E-3
MEAN_MOTION_DOT = .159E-5
MEAN_MOTION_DDOT = 0

CCSDS_OMM_VERS = 2.0
CREATION_DATE  = 
ORIGINATOR     = 

OBJECT_NAME    = USA 81
OBJECT_ID      = 1992-023A
CENTER_NAME    = EARTH
REF_FRAME      = TEME
TIME_SYSTEM    = UTC
MEAN_ELEMENT_THEORY = SGP/SGP4

EPOCH          = 2026-01-13T16:19:40.562976
MEAN_MOTION    = 14.32341782
ECCENTRICITY   = .00016389
INCLINATION    = 85.0100
RA_OF_ASC_NODE = 163.1562
ARG_OF_PERICENTER = 117.4996
MEAN_ANOMALY   = 242.6364

EPHEMERIS_TYPE = 0
CLASSIFICATION_TYPE = U
NORAD_CAT_ID   = 21949
ELEMENT_SET_NO = 999
REV_AT_EPOCH   = 8691
BSTAR          = .55758915E-4
MEAN_MOTION_DOT = .17E-5
MEAN_MOTION_DDOT = 0

CCSDS_OMM_VERS = 2.0
CREATION_DATE  = 
ORIGINATOR     = 

OBJECT_NAME    = COSMOS 2219
OBJECT_ID      = 1992-076A
CENTER_NAME    = EARTH
REF_FRAME      = TEME
TIME_SYSTEM    = UTC
MEAN_ELEMENT_THEORY = SGP/SGP4

EPOCH          = 2026-01-13T18:27:53.414208
MEAN_MOTION    = 14.14081332
ECCENTRICITY   = .00206359
INCLINATION    = 71.0618
RA_OF_ASC_NODE = 132.8793
ARG_OF_PERICENTER = 282.9199
MEAN_ANOMALY   = 76.9619

EPHEMERIS_TYPE = 0
CLASSIFICATION_TYPE = U
NORAD_CAT_ID   = 22219
ELEMENT_SET_NO = 999
REV_AT_EPOCH   = 71061
BSTAR          = .17768198E-4
MEAN_MOTION_DOT = -.13E-6
MEAN_MOTION_DDOT = 0

CCSDS_OMM_VERS = 2.0
CREATION_DATE  = 
ORIGINATOR     = 

OBJECT_NAME    = SL-16 R/B
OBJECT_ID      = 1992-076B
CENTER_NAME    = EARTH
REF_FRAME      = TEME
TIME_SYSTEM    = UTC
MEAN_ELEMENT_THEORY = SGP/SGP4

EPOCH          = 2026-01-13T13:55:10.973568
MEAN_MOTION    = 14.16848965
ECCENTRICITY   = .00130453
INCLINATION    = 71.0016
RA_OF_ASC_NODE = 304.4613
ARG_OF_PERICENTER = 189.5465
MEAN_ANOMALY   = 343.7504

EPHEMERIS_TYPE = 0
CLASSIFICATION_TYPE = U
NORAD_CAT_ID   = 22220
ELEMENT_SET_NO = 999
REV_AT_EPOCH   = 71402
BSTAR          = .13167892E-3
MEAN_MOTION_DOT = .216E-5
MEAN_MOTION_DDOT = 0

CCSDS_OMM_VERS = 2.0
CREATION_DATE  = 
ORIGINATOR     = 

OBJECT_NAME    = COSMOS 2221
OBJECT_ID      = 1992-080A
CENTER_NAME    = EARTH
REF_FRAME      = TEME
TIME_SYSTEM    = UTC
MEAN_ELEMENT_THEORY = SGP/SGP4

EPOCH          = 2026-01-13T20:38:26.054592
MEAN_MOTION    = 14.95923582
ECCENTRICITY   = .00152961
INCLINATION    = 82.5056
RA_OF_ASC_NODE = 331.5782
ARG_OF_PERICENTER = 23.6303
MEAN_ANOMALY   = 336.5618

EPHEMERIS_TYPE = 0
CLASSIFICATION_TYPE = U
NORAD_CAT_ID   = 22236
ELEMENT_SET_NO = 999
REV_AT_EPOCH   = 77259
BSTAR          = .11974534E-3
MEAN_MOTION_DOT = .1369E-4
MEAN_MOTION_DDOT = 0

CCSDS_OMM_VERS = 2.0
CREATION_DATE  = 
ORIGINATOR     = 

OBJECT_NAME    = SL-16 R/B
OBJECT_ID      = 1992-093B
CENTER_NAME    = EARTH
REF_FRAME      = TEME
TIME_SYSTEM    = UTC
MEAN_ELEMENT_THEORY = SGP/SGP4

EPOCH          = 2026-01-13T16:29:43.745568
MEAN_MOTION    = 14.15436078
ECCENTRICITY   = .00036099
INCLINATION    = 71.0220
RA_OF_ASC_NODE = 119.7332
ARG_OF_PERICENTER = 0.0590
MEAN_ANOMALY   = 0.0533

EPHEMERIS_TYPE = 0
CLASSIFICATION_TYPE = U
NORAD_CAT_ID   = 22285
ELEMENT_SET_NO = 999
REV_AT_EPOCH   = 70537
BSTAR          = .15452779E-3
MEAN_MOTION_DOT = .254E-5
MEAN_MOTION_DDOT = 0

CCSDS_OMM_VERS = 2.0
CREATION_DATE  = 
ORIGINATOR     = 

OBJECT_NAME    = COSMOS 2228
OBJECT_ID      = 1992-094A
CENTER_NAME    = EARTH
REF_FRAME      = TEME
TIME_SYSTEM    = UTC
MEAN_ELEMENT_THEORY = SGP/SGP4

EPOCH          = 2026-01-13T20:17:16.934496
MEAN_MOTION    = 14.96907219
ECCENTRICITY   = .00192968
INCLINATION    = 82.5191
RA_OF_ASC_NODE = 289.8155
ARG_OF_PERICENTER = 123.0524
MEAN_ANOMALY   = 237.2556

EPHEMERIS_TYPE = 0
CLASSIFICATION_TYPE = U
NORAD_CAT_ID   = 22286
ELEMENT_SET_NO = 999
REV_AT_EPOCH   = 76785
BSTAR          = .14804266E-3
MEAN_MOTION_DOT = .1731E-4
MEAN_MOTION_DDOT = 0

